{
  "type": "FeatureCollection",
  "features": [
    {
      "type": "Feature",
      "properties": {
        "norad_id": 40069,
        "name": "METEOR-M 2",
        "group": "weather",
        "lat": -4.061000492033356,
        "lon": 136.17805359852525,
        "alt_km": 822.0173301441155,
        "timestamp": "2025-12-04T21:36:15.516484+00:00",
        "meta_object_name": "METEOR-M 2",
        "meta_object_id": "2014-037A",
        "meta_epoch": "2025-12-04T13:58:59.445408",
        "meta_mean_motion": 14.21381628,
        "meta_eccentricity": 0.00047248,
        "meta_inclination": 98.4894,
        "meta_ra_of_asc_node": 316.4803,
        "meta_arg_of_pericenter": 236.723,
        "meta_mean_anomaly": 123.3495,
        "meta_ephemeris_type": 0,
        "meta_classification_type": "U",
        "meta_norad_cat_id": 40069,
        "meta_element_set_no": 999,
        "meta_rev_at_epoch": 59167,
        "meta_bstar": 0.00014726177,
        "meta_mean_motion_dot": 2.8e-06,
        "meta_mean_motion_ddot": 0,
        "tle_line1": "1 40069U 14037A   25338.58263247  .00000280  00000+0  14726-3 0  9994",
        "tle_line2": "2 40069  98.4894 316.4803 0004724 236.7230 123.3495 14.21381628591679"
      },
      "geometry": {
        "type": "Point",
        "coordinates": [
          136.17805359852525,
          -4.061000492033356
        ]
      }
    },
    {
      "type": "Feature",
      "properties": {
        "norad_id": 40267,
        "name": "HIMAWARI-8",
        "group": "weather",
        "lat": 0.004910434138855003,
        "lon": 178.67358709793814,
        "alt_km": 35788.128989448815,
        "timestamp": "2025-12-04T21:36:15.516496+00:00",
        "meta_object_name": "HIMAWARI-8",
        "meta_object_id": "2014-060A",
        "meta_epoch": "2025-12-04T14:23:45.762144",
        "meta_mean_motion": 1.00270217,
        "meta_eccentricity": 0.00013169,
        "meta_inclination": 0.0105,
        "meta_ra_of_asc_node": 98.274,
        "meta_arg_of_pericenter": 187.1183,
        "meta_mean_anomaly": 144.897,
        "meta_ephemeris_type": 0,
        "meta_classification_type": "U",
        "meta_norad_cat_id": 40267,
        "meta_element_set_no": 999,
        "meta_rev_at_epoch": 4080,
        "meta_bstar": 0,
        "meta_mean_motion_dot": -2.61e-06,
        "meta_mean_motion_ddot": 0,
        "tle_line1": "1 40267U 14060A   25338.59983521 -.00000261  00000+0  00000+0 0  9991",
        "tle_line2": "2 40267   0.0105  98.2740 0001316 187.1183 144.8970  1.00270217 40802"
      },
      "geometry": {
        "type": "Point",
        "coordinates": [
          178.67358709793814,
          0.004910434138855003
        ]
      }
    },
    {
      "type": "Feature",
      "properties": {
        "norad_id": 40367,
        "name": "FENGYUN 2G",
        "group": "weather",
        "lat": 4.572773624973953,
        "lon": 137.592770268328,
        "alt_km": 35795.65912523634,
        "timestamp": "2025-12-04T21:36:15.516508+00:00",
        "meta_object_name": "FENGYUN 2G",
        "meta_object_id": "2014-090A",
        "meta_epoch": "2025-12-04T07:21:07.807968",
        "meta_mean_motion": 1.00267095,
        "meta_eccentricity": 0.00031226,
        "meta_inclination": 5.1453,
        "meta_ra_of_asc_node": 75.1954,
        "meta_arg_of_pericenter": 194.2721,
        "meta_mean_anomaly": 13.9009,
        "meta_ephemeris_type": 0,
        "meta_classification_type": "U",
        "meta_norad_cat_id": 40367,
        "meta_element_set_no": 999,
        "meta_rev_at_epoch": 4004,
        "meta_bstar": 0,
        "meta_mean_motion_dot": -2.89e-06,
        "meta_mean_motion_ddot": 0,
        "tle_line1": "1 40367U 14090A   25338.30634037 -.00000289  00000+0  00000+0 0  9999",
        "tle_line2": "2 40367   5.1453  75.1954 0003122 194.2721  13.9009  1.00267095 40045"
      },
      "geometry": {
        "type": "Point",
        "coordinates": [
          137.592770268328,
          4.572773624973953
        ]
      }
    },
    {
      "type": "Feature",
      "properties": {
        "norad_id": 40732,
        "name": "METEOSAT-11 (MSG-4)",
        "group": "weather",
        "lat": -1.1032591762407131,
        "lon": 47.46387531289082,
        "alt_km": 35791.54889032569,
        "timestamp": "2025-12-04T21:36:15.516520+00:00",
        "meta_object_name": "METEOSAT-11 (MSG-4)",
        "meta_object_id": "2015-034A",
        "meta_epoch": "2025-12-04T13:46:19.349184",
        "meta_mean_motion": 1.00264986,
        "meta_eccentricity": 0.00010296,
        "meta_inclination": 2.715,
        "meta_ra_of_asc_node": 72.024,
        "meta_arg_of_pericenter": 117.8054,
        "meta_mean_anomaly": 99.8358,
        "meta_ephemeris_type": 0,
        "meta_classification_type": "U",
        "meta_norad_cat_id": 40732,
        "meta_element_set_no": 999,
        "meta_rev_at_epoch": 526,
        "meta_bstar": 0,
        "meta_mean_motion_dot": 7.5e-07,
        "meta_mean_motion_ddot": 0,
        "tle_line1": "1 40732U 15034A   25338.57383506  .00000075  00000+0  00000+0 0  9997",
        "tle_line2": "2 40732   2.7150  72.0240 0001029 117.8054  99.8358  1.00264986  5267"
      },
      "geometry": {
        "type": "Point",
        "coordinates": [
          47.46387531289082,
          -1.1032591762407131
        ]
      }
    },
    {
      "type": "Feature",
      "properties": {
        "norad_id": 41105,
        "name": "ELEKTRO-L 2",
        "group": "weather",
        "lat": -4.687293731491416,
        "lon": 23.69838423413251,
        "alt_km": 35793.94323222942,
        "timestamp": "2025-12-04T21:36:15.516532+00:00",
        "meta_object_name": "ELEKTRO-L 2",
        "meta_object_id": "2015-074A",
        "meta_epoch": "2025-12-04T01:40:17.137056",
        "meta_mean_motion": 1.00269777,
        "meta_eccentricity": 0.00040203,
        "meta_inclination": 6.2023,
        "meta_ra_of_asc_node": 72.9293,
        "meta_arg_of_pericenter": 197.7104,
        "meta_mean_anomaly": 173.0548,
        "meta_ephemeris_type": 0,
        "meta_classification_type": "U",
        "meta_norad_cat_id": 41105,
        "meta_element_set_no": 999,
        "meta_rev_at_epoch": 3655,
        "meta_bstar": 0,
        "meta_mean_motion_dot": -1.05e-06,
        "meta_mean_motion_ddot": 0,
        "tle_line1": "1 41105U 15074A   25338.06964279 -.00000105  00000+0  00000+0 0  9997",
        "tle_line2": "2 41105   6.2023  72.9293 0004020 197.7104 173.0548  1.00269777 36559"
      },
      "geometry": {
        "type": "Point",
        "coordinates": [
          23.69838423413251,
          -4.687293731491416
        ]
      }
    },
    {
      "type": "Feature",
      "properties": {
        "norad_id": 41752,
        "name": "INSAT-3DR",
        "group": "weather",
        "lat": 0.04472913425008688,
        "lon": 111.96881329024345,
        "alt_km": 35843.32692060064,
        "timestamp": "2025-12-04T21:36:15.516544+00:00",
        "meta_object_name": "INSAT-3DR",
        "meta_object_id": "2016-054A",
        "meta_epoch": "2025-12-04T14:04:47.578656",
        "meta_mean_motion": 1.00269621,
        "meta_eccentricity": 0.00145265,
        "meta_inclination": 0.0713,
        "meta_ra_of_asc_node": 88.5764,
        "meta_arg_of_pericenter": 180.632,
        "meta_mean_anomaly": 89.672,
        "meta_ephemeris_type": 0,
        "meta_classification_type": "U",
        "meta_norad_cat_id": 41752,
        "meta_element_set_no": 999,
        "meta_rev_at_epoch": 3386,
        "meta_bstar": 0,
        "meta_mean_motion_dot": -6.2e-07,
        "meta_mean_motion_ddot": 0,
        "tle_line1": "1 41752U 16054A   25338.58666179 -.00000062  00000+0  00000+0 0  9991",
        "tle_line2": "2 41752   0.0713  88.5764 0014526 180.6320  89.6720  1.00269621 33867"
      },
      "geometry": {
        "type": "Point",
        "coordinates": [
          111.96881329024345,
          0.04472913425008688
        ]
      }
    },
    {
      "type": "Feature",
      "properties": {
        "norad_id": 41836,
        "name": "HIMAWARI-9",
        "group": "weather",
        "lat": -0.0089816317731769,
        "lon": 178.72135558943035,
        "alt_km": 35793.64524070063,
        "timestamp": "2025-12-04T21:36:15.516556+00:00",
        "meta_object_name": "HIMAWARI-9",
        "meta_object_id": "2016-064A",
        "meta_epoch": "2025-12-04T14:23:45.762144",
        "meta_mean_motion": 1.00266965,
        "meta_eccentricity": 0.00024988,
        "meta_inclination": 0.0187,
        "meta_ra_of_asc_node": 359.6866,
        "meta_arg_of_pericenter": 305.2934,
        "meta_mean_anomaly": 125.3693,
        "meta_ephemeris_type": 0,
        "meta_classification_type": "U",
        "meta_norad_cat_id": 41836,
        "meta_element_set_no": 999,
        "meta_rev_at_epoch": 3325,
        "meta_bstar": 0,
        "meta_mean_motion_dot": 0,
        "meta_mean_motion_ddot": 0,
        "tle_line1": "1 41836U 16064A   25338.59983521  .00000000  00000+0  00000+0 0  9990",
        "tle_line2": "2 41836   0.0187 359.6866 0002498 305.2934 125.3693  1.00266965 33259"
      },
      "geometry": {
        "type": "Point",
        "coordinates": [
          178.72135558943035,
          -0.0089816317731769
        ]
      }
    }
  ]
}